{
  "type": "FeatureCollection",
  "features": [
    {
      "type": "Feature",
      "properties": {
        "norad_id": 39773,
        "name": "EUTELSAT 3B",
        "group": "eutelsat",
        "lat": -0.08062129364890355,
        "lon": -109.33498898936945,
        "alt_km": 35767.22151652877,
        "timestamp": "2025-12-06T11:28:10.700656+00:00",
        "meta_object_name": "EUTELSAT 3B",
        "meta_object_id": "2014-030A",
        "meta_epoch": "2025-12-05T22:16:07.502304",
        "meta_mean_motion": 1.00271437,
        "meta_eccentricity": 0.0004754,
        "meta_inclination": 0.0644,
        "meta_ra_of_asc_node": 9,
        "meta_arg_of_pericenter": 221.7183,
        "meta_mean_anomaly": 181.3853,
        "meta_ephemeris_type": 0,
        "meta_classification_type": "U",
        "meta_norad_cat_id": 39773,
        "meta_element_set_no": 999,
        "meta_rev_at_epoch": 4212,
        "meta_bstar": 0,
        "meta_mean_motion_dot": 2.9e-07,
        "meta_mean_motion_ddot": 0,
        "tle_line1": "1 39773U 14030A   25339.92786461  .00000029  00000+0  00000+0 0  9991",
        "tle_line2": "2 39773   0.0644   9.0000 0004754 221.7183 181.3853  1.00271437 42121"
      },
      "geometry": {
        "type": "Point",
        "coordinates": [
          -109.33498898936945,
          -0.08062129364890355
        ]
      }
    },
    {
      "type": "Feature",
      "properties": {
        "norad_id": 40425,
        "name": "EUTELSAT 115 WEST B",
        "group": "eutelsat",
        "lat": -0.0034588988777609266,
        "lon": 132.6823305010797,
        "alt_km": 35785.318608423484,
        "timestamp": "2025-12-06T11:28:10.700668+00:00",
        "meta_object_name": "EUTELSAT 115 WEST B",
        "meta_object_id": "2015-010B",
        "meta_epoch": "2025-12-05T21:42:40.706784",
        "meta_mean_motion": 1.00271075,
        "meta_eccentricity": 4.108e-05,
        "meta_inclination": 0.0148,
        "meta_ra_of_asc_node": 147.2879,
        "meta_arg_of_pericenter": 288.3386,
        "meta_mean_anomaly": 210.1252,
        "meta_ephemeris_type": 0,
        "meta_classification_type": "U",
        "meta_norad_cat_id": 40425,
        "meta_element_set_no": 999,
        "meta_rev_at_epoch": 3945,
        "meta_bstar": 0,
        "meta_mean_motion_dot": -1.6e-07,
        "meta_mean_motion_ddot": 0,
        "tle_line1": "1 40425U 15010B   25339.90463781 -.00000016  00000+0  00000+0 0  9998",
        "tle_line2": "2 40425   0.0148 147.2879 0000410 288.3386 210.1252  1.00271075 39458"
      },
      "geometry": {
        "type": "Point",
        "coordinates": [
          132.6823305010797,
          -0.0034588988777609266
        ]
      }
    },
    {
      "type": "Feature",
      "properties": {
        "norad_id": 40875,
        "name": "EUTELSAT 8 WEST B",
        "group": "eutelsat",
        "lat": -0.08433637306301518,
        "lon": -120.45238942465959,
        "alt_km": 35769.50220685903,
        "timestamp": "2025-12-06T11:28:10.700680+00:00",
        "meta_object_name": "EUTELSAT 8 WEST B",
        "meta_object_id": "2015-039B",
        "meta_epoch": "2025-12-05T22:13:07.788576",
        "meta_mean_motion": 1.0027157,
        "meta_eccentricity": 0.00041156,
        "meta_inclination": 0.0647,
        "meta_ra_of_asc_node": 352.8633,
        "meta_arg_of_pericenter": 264.0555,
        "meta_mean_anomaly": 143.3492,
        "meta_ephemeris_type": 0,
        "meta_classification_type": "U",
        "meta_norad_cat_id": 40875,
        "meta_element_set_no": 999,
        "meta_rev_at_epoch": 3771,
        "meta_bstar": 0,
        "meta_mean_motion_dot": -5.6e-07,
        "meta_mean_motion_ddot": 0,
        "tle_line1": "1 40875U 15039B   25339.92578459 -.00000056  00000+0  00000+0 0  9993",
        "tle_line2": "2 40875   0.0647 352.8633 0004115 264.0555 143.3492  1.00271570 37718"
      },
      "geometry": {
        "type": "Point",
        "coordinates": [
          -120.45238942465959,
          -0.08433637306301518
        ]
      }
    },
    {
      "type": "Feature",
      "properties": {
        "norad_id": 41310,
        "name": "EUTELSAT 9B",
        "group": "eutelsat",
        "lat": -0.02661159178805568,
        "lon": -103.46612734108706,
        "alt_km": 35764.99859299408,
        "timestamp": "2025-12-06T11:28:10.700692+00:00",
        "meta_object_name": "EUTELSAT 9B",
        "meta_object_id": "2016-005A",
        "meta_epoch": "2025-12-05T22:17:59.823168",
        "meta_mean_motion": 1.0027216,
        "meta_eccentricity": 0.00050241,
        "meta_inclination": 0.0726,
        "meta_ra_of_asc_node": 75.7145,
        "meta_arg_of_pericenter": 191.28,
        "meta_mean_anomaly": 151.4745,
        "meta_ephemeris_type": 0,
        "meta_classification_type": "U",
        "meta_norad_cat_id": 41310,
        "meta_element_set_no": 999,
        "meta_rev_at_epoch": 3617,
        "meta_bstar": 0,
        "meta_mean_motion_dot": 7.1e-07,
        "meta_mean_motion_ddot": 0,
        "tle_line1": "1 41310U 16005A   25339.92916462  .00000071  00000+0  00000+0 0  9998",
        "tle_line2": "2 41310   0.0726  75.7145 0005024 191.2800 151.4745  1.00272160 36170"
      },
      "geometry": {
        "type": "Point",
        "coordinates": [
          -103.46612734108706,
          -0.02661159178805568
        ]
      }
    },
    {
      "type": "Feature",
      "properties": {
        "norad_id": 41382,
        "name": "EUTELSAT 65 WEST A",
        "group": "eutelsat",
        "lat": -0.018404850082131035,
        "lon": -177.6931440503262,
        "alt_km": 35784.87004385782,
        "timestamp": "2025-12-06T11:28:10.700704+00:00",
        "meta_object_name": "EUTELSAT 65 WEST A",
        "meta_object_id": "2016-014A",
        "meta_epoch": "2025-12-05T21:56:46.855680",
        "meta_mean_motion": 1.00269793,
        "meta_eccentricity": 0.00028746,
        "meta_inclination": 0.0495,
        "meta_ra_of_asc_node": 352.8072,
        "meta_arg_of_pericenter": 270.9209,
        "meta_mean_anomaly": 75.2231,
        "meta_ephemeris_type": 0,
        "meta_classification_type": "U",
        "meta_norad_cat_id": 41382,
        "meta_element_set_no": 999,
        "meta_rev_at_epoch": 3559,
        "meta_bstar": 0,
        "meta_mean_motion_dot": -2.67e-06,
        "meta_mean_motion_ddot": 0,
        "tle_line1": "1 41382U 16014A   25339.91443120 -.00000267  00000+0  00000+0 0  9990",
        "tle_line2": "2 41382   0.0495 352.8072 0002874 270.9209  75.2231  1.00269793 35594"
      },
      "geometry": {
        "type": "Point",
        "coordinates": [
          -177.6931440503262,
          -0.018404850082131035
        ]
      }
    },
    {
      "type": "Feature",
      "properties": {
        "norad_id": 41589,
        "name": "EUTELSAT 117 WEST B",
        "group": "eutelsat",
        "lat": -0.00770740959881559,
        "lon": 130.53391361281706,
        "alt_km": 35785.88084360875,
        "timestamp": "2025-12-06T11:28:10.700734+00:00",
        "meta_object_name": "EUTELSAT 117 WEST B",
        "meta_object_id": "2016-038B",
        "meta_epoch": "2025-12-05T16:33:57.002976",
        "meta_mean_motion": 1.00266571,
        "meta_eccentricity": 3.902e-05,
        "meta_inclination": 0.0079,
        "meta_ra_of_asc_node": 160.8925,
        "meta_arg_of_pericenter": 335.2257,
        "meta_mean_anomaly": 70.1092,
        "meta_ephemeris_type": 0,
        "meta_classification_type": "U",
        "meta_norad_cat_id": 41589,
        "meta_element_set_no": 999,
        "meta_rev_at_epoch": 3472,
        "meta_bstar": 0,
        "meta_mean_motion_dot": -1e-08,
        "meta_mean_motion_ddot": 0,
        "tle_line1": "1 41589U 16038B   25339.69024309 -.00000001  00000+0  00000+0 0  9990",
        "tle_line2": "2 41589   0.0079 160.8925 0000390 335.2257  70.1092  1.00266571 34728"
      },
      "geometry": {
        "type": "Point",
        "coordinates": [
          130.53391361281706,
          -0.00770740959881559
        ]
      }
    },
    {
      "type": "Feature",
      "properties": {
        "norad_id": 42741,
        "name": "EUTELSAT 172B",
        "group": "eutelsat",
        "lat": 0.0032021940651548973,
        "lon": 59.55360207124705,
        "alt_km": 35786.90873578486,
        "timestamp": "2025-12-06T11:28:10.700750+00:00",
        "meta_object_name": "EUTELSAT 172B",
        "meta_object_id": "2017-029B",
        "meta_epoch": "2025-12-05T21:21:42.715872",
        "meta_mean_motion": 1.00271098,
        "meta_eccentricity": 1.563e-05,
        "meta_inclination": 0.0102,
        "meta_ra_of_asc_node": 82.7669,
        "meta_arg_of_pericenter": 152.681,
        "meta_mean_anomaly": 331.9231,
        "meta_ephemeris_type": 0,
        "meta_classification_type": "U",
        "meta_norad_cat_id": 42741,
        "meta_element_set_no": 999,
        "meta_rev_at_epoch": 3179,
        "meta_bstar": 0,
        "meta_mean_motion_dot": 4e-08,
        "meta_mean_motion_ddot": 0,
        "tle_line1": "1 42741U 17029B   25339.89007773  .00000004  00000+0  00000+0 0  9992",
        "tle_line2": "2 42741   0.0102  82.7669 0000156 152.6810 331.9231  1.00271098 31796"
      },
      "geometry": {
        "type": "Point",
        "coordinates": [
          59.55360207124705,
          0.0032021940651548973
        ]
      }
    }
  ]
}